#cP2021  8 24  0  0  0.00000000      96 ORBIT IGb14 HLM  IGS
## 2172 172800.00000000   900.00000000 59450 0.0000000000000
+   31   G01G02G03G04G05G06G07G08G09G10G12G13G14G15G16G17G18
+        G19G20G21G22G23G24G25G26G27G28G29G30G31G32  0  0  0
+          0  0  0  0  0  0  0  0  0  0  0  0  0  0  0  0  0
+          0  0  0  0  0  0  0  0  0  0  0  0  0  0  0  0  0
+          0  0  0  0  0  0  0  0  0  0  0  0  0  0  0  0  0
++         2  2  2  2  1  1  1  2  2  1  2  1  2  2  2  2  2
++         2  1  2  1  2  2  2  1  2  2  2  1  1  2  0  0  0
++         0  0  0  0  0  0  0  0  0  0  0  0  0  0  0  0  0
++         0  0  0  0  0  0  0  0  0  0  0  0  0  0  0  0  0
++         0  0  0  0  0  0  0  0  0  0  0  0  0  0  0  0  0
%c G  cc GPS ccc cccc cccc cccc cccc ccccc ccccc ccccc ccccc
%c cc cc ccc ccc cccc cccc cccc cccc ccccc ccccc ccccc ccccc
%f  1.2500000  1.025000000  0.00000000000  0.000000000000000
%f  0.0000000  0.000000000  0.00000000000  0.000000000000000
%i    0    0    0    0      0      0      0      0         0
%i    0    0    0    0      0      0      0      0         0
/* FINAL ORBIT COMBINATION FROM WEIGHTED AVERAGE OF:        
/* cod emr esa gfz grg jpl mit ngs sio                      
/* REFERENCED TO IGS TIME (IGST) AND TO WEIGHTED MEAN POLE: 
/* PCV:IGS14_2163 OL/AL:FES2004  NONE     Y  ORB:CMB CLK:CMB
*  2021  8 24  5 15  0.00000000
PG01  -4664.989926 -14146.734905 -22277.966211    588.483918  6  6  4  95       
PG02 -18546.643786  14624.591857  12871.738985   -628.204883  3  6  3  92       
PG03 -10036.378507 -22266.391534 -10670.701094   -264.890125  6     4  78       
PG04  -1449.534716 -22915.657797  13299.988121   -204.122129  7 10  6  72       
PG05   -863.121377  18359.910571  18947.711703    -52.108904  3  4  4  75       
PG06 -25760.861108   6395.563447   1650.701846     61.390874  5  6  2  90       
PG07 -19660.790963  -8130.379997  16568.790047    231.332021  3  6  4  68       
PG08   5751.883497 -25579.684246  -3028.054983    -33.801679  6  8  5  86       
PG09 -10404.108027 -14069.457391  19910.001013   -359.561340  5  3  3 109       
PG10  20563.815904   7382.970771 -15178.468275   -188.753841  2  4  2  71       
PG12   8081.306298  22924.865341 -11111.907387    -87.279423  5  7  4  85       
PG13 -13220.737663  22747.065757   2859.307590    175.601438     6  3  83       
PG14 -20241.496282  -7443.634964 -15537.327232     16.888520  3  5  4  72       
PG15  -2426.585245  26042.355720  -3761.187263   -126.182649  4  6  2  95       
PG16   7409.725354 -14026.115916  20973.853982   -378.811128  6  6  3  90       
PG17 -15398.728281    345.821730 -21209.952844    494.055008  3  3  3 112       
PG18  21078.102273   6473.783824  14856.402841    329.834948  3  7  3  86       
PG19 -17421.236181   9253.279474 -17985.463224     43.660826  3  2  3  70       
PG20 -11275.042060  10949.932255  21367.685072    519.495141  4  6  4  73       
PG21   4114.718818 -15878.190713 -20079.701413    138.930792  5  6  4  83       
PG22  -4715.628747 -20474.393151 -16190.642250   -530.656024  7  4  4  64       
PG23  20414.093238  16131.472139  -5539.416340     66.738377  5  6  3  75       
PG24     90.222058  16260.070487 -21210.345408    216.986025  4  6  5  93       
PG25  16717.782980  20755.115821  -1993.683774    196.398060  2  5  5  83       
PG26  16371.550275  -4559.179308  20413.022587    126.192951  4  4  4  70       
PG27  12129.137905 -22398.891088   6636.791126   -182.801468  8  9  6  83       
PG28 -17694.277820  -2056.001570 -19091.048664    514.265118  3  6  6 103       
PG29   7132.293820  16561.618389  19430.721052   -400.955403  5  8  3 123       
PG30 -25912.321284    -78.175047   6446.550735   -465.508562  3  4  3  70       
PG31  25605.995887  -7125.369930   3449.540143   -135.947508  5  4  3  92       
PG32  16375.832506  -4215.489948 -20324.558202      5.403427  5  4  4  78       
*  2021  8 24  5 30  0.00000000
PG01  -2242.867718 -14692.109019 -22271.326572    588.473863  6  6  3  95       
PG02 -19787.244105  14825.325699  10447.949440   -628.206835  2  6  3  87       
PG03  -8981.071783 -21420.950491 -13081.788240   -264.901860  6  1  4  85       
PG04   -808.051965 -24164.653971  10925.757569   -204.122344  7 10  6  79       
PG05  -2577.993998  16859.647931  20152.699091    -52.110014  3  3  4  76       
PG06 -25819.801675   6221.186896  -1248.084595     61.396802  5  6  1  78       
PG07 -17827.689786  -8697.664147  18260.506738    231.338575  3  6  4  54       
PG08   6052.251502 -25685.944568   -149.370065    -33.803354  6  7  5  97       
PG09  -9692.552851 -16176.352226  18629.794207   -359.562125  5  3  3 105       
PG10  21565.864157   8663.868453 -12993.445928   -188.760844  3  5  2  42       
PG12   7082.010457  21978.089196 -13492.632802    -87.284308  5  7  3  78       
PG13 -13235.044142  22186.578636   5683.746199    175.606022     6  3  82       
PG14 -21181.146291  -8821.593462 -13423.709990     16.880950  3  5  4  73       
PG15  -2826.818530  26211.908352   -965.954082   -126.180164  3  6  2  79       
PG16   9007.246409 -12115.225928  21565.225123   -378.816806  6  6  4  76       
PG17 -14566.997877  -2056.134064 -21685.167823    494.060475  3  3  2 114       
PG18  19343.158027   7014.208374  16830.086571    329.831616  4  7  3  85       
PG19 -16718.724380   7275.976223 -19531.966192     43.665241  3  3  3  70       
PG20 -13168.031562   9409.200001  20992.875121    519.494973  4  6  4  78       
PG21   6428.870067 -16478.842588 -18947.652658    138.932551  5  6  4  81       
PG22  -3089.308586 -19330.685382 -17864.480480   -530.647703  7  4  4  87       
PG23  20581.827744  16628.054642  -2730.724931     66.733895  4  7  3  58       
PG24  -2177.952375  16891.273095 -20551.873521    216.995409  4  6  5  92       
PG25  16302.618883  20658.643743  -4796.881937    196.403888  3  5  5  87       
PG26  17952.839034  -2901.380031  19388.075858    126.196903  3  5  4  66       
PG27  12081.719896 -21428.742658   9341.862261   -182.806422  8  9  6  86       
PG28 -18946.311099  -3875.698300 -17572.879116    514.258860  3  6  7  92       
PG29   6279.746621  18528.214666  17886.236374   -400.960450  5  9  4 121       
PG30 -25116.935956   -541.705628   9049.649039   -465.512238  3  4  3  66       
PG31  25891.171661  -6947.281514    644.355092   -135.949611  5  4  3  89       
PG32  15793.851380  -1885.788554 -21130.192442      5.400763  5  4  4  71       
*  2021  8 24  5 45  0.00000000
PG01    126.996009 -15368.555511 -21890.603705    588.463804  6  6  3  83       
PG02 -20758.697622  14987.722284   7849.976649   -628.209196  2  6  3  97       
PG03  -7692.395664 -20456.657862 -15270.205320   -264.913670  7  2  4  91       
PG04   -304.579174 -25175.148688   8362.895160   -204.122523  8 10  6  94       
PG05  -4455.102673  15372.267068  21004.634356    -52.111140  4  3  4  74       
PG06 -25575.250965   5954.508695  -4125.449561     61.402800  5  5  1  93       
PG07 -15861.637151  -9408.778331  19651.774526    231.345473  4  5  4  72       
PG08   6278.484897 -25486.066143   2731.932878    -33.804048  5  7  6  82       
PG09  -9123.346729 -18156.679112  17027.124098   -359.562866  6  2  3  96       
PG10  22444.817333   9710.255298 -10586.455945   -188.767804  4  5  3  71       
PG12   5860.606354  20900.853189 -15645.904562    -87.289081  5  7  3  84       
PG13 -13168.473600  21331.090143   8409.148905    175.610978  1  5  4  71       
PG14 -22013.887726  -9969.403145 -11079.663824     16.873444  3  5  4  61       
PG15  -3186.788679  26083.271472   1846.206730   -126.178188  2  7  3  71       
PG16  10731.666045 -10260.398975  21775.499647   -378.822291  5  6  4  89       
PG17 -13857.194405  -4531.363557 -21771.899464    494.065699  4  2  2 113       
PG18  17439.790235   7703.372983  18514.856979    329.828195  4  7  4  97       
PG19 -16076.972169   5118.476759 -20748.353694     43.669745  4  3  3  69       
PG20 -15083.568563   7996.200725  20254.682324    519.494560  5  6  4  79       
PG21   8568.759736 -17137.745833 -17464.916684    138.934383  5  6  5  81       
PG22  -1270.698210 -18161.317684 -19228.870096   -530.639031  7  3  4  79       
PG23  20535.712021  16902.912714    124.755418     66.729344  4  7  3  49       
PG24  -4330.492235  17598.943050 -19544.950135    217.004810  4  6  4  81       
PG25  15657.400105  20372.253907  -7519.278472    196.409719  4  5  5  79       
PG26  19509.654771  -1412.430475  18030.326281    126.200827  3  5  3  82       
PG27  12019.096797 -20163.863626  11881.603262   -182.811441  8  9  6  88       
PG28 -20162.108953  -5479.778373 -15737.167400    514.252905  3  6  7 107       
PG29   5594.650969  20354.451142  16032.128108   -400.965335  5  9  4 120       
PG30 -24072.110084  -1119.322144  11499.472719   -465.515859  4  3  3  75       
PG31  25882.017099  -6700.868929  -2171.618915   -135.951444  5  4  2  78       
PG32  15316.683669    538.321939 -21567.605160      5.398072  5  4  3  33       
EOF
